NORAD_CAT_ID,OBJECT_NAME,OBJECT_TYPE,EPOCH,MEAN_MOTION,ECCENTRICITY,INCLINATION,RA_OF_ASC_NODE,ARG_OF_PERICENTER,MEAN_ANOMALY,BSTAR,MEAN_MOTION_DOT,MEAN_MOTION_DDOT,TLE_LINE0,TLE_LINE1,TLE_LINE2,SEMIMAJOR_AXIS,PERIOD,APOGEE,PERIGEE,DECAYED
54192.0,STARLINK-5268,PAYLOAD,2024-02-27 11:25:11,15.08841496,0.0001529,53.2159,81.2834,97.4621,262.6544,5.86e-05,6.45e-06,0.0,0 STARLINK-5268,1 54192U 22141AM  24058.47582973  .00000645  00000-0  58600-4 0  9993,2 54192  53.2159  81.2834 0001529  97.4621 262.6544 15.08841496 74107,6917.876,95.437,540.799,538.683,0.0
54192.0,STARLINK-5268,PAYLOAD,2024-02-28 08:05:12,15.08839168,0.0001424,53.2163,77.4218,93.5816,266.5339,8.278e-05,1.03e-05,0.0,0 STARLINK-5268,1 54192U 22141AM  24059.33695227  .00001030  00000-0  82780-4 0  9991,2 54192  53.2163  77.4218 0001424  93.5816 266.5339 15.08839168 74469,6917.883,95.438,540.733,538.763,0.0
54192.0,STARLINK-5268,PAYLOAD,2024-02-29 07:55:59,15.08839837,0.0001474,53.2171,72.9604,98.1117,262.0042,0.00012728,1.738e-05,0.0,0 STARLINK-5268,1 54192U 22141AM  24060.33055412  .00001738  00000-0  12728-3 0  9998,2 54192  53.2171  72.9604 0001474  98.1117 262.0042 15.08839837 74383,6917.881,95.438,540.766,538.726,0.0
54192.0,STARLINK-5268,PAYLOAD,2024-02-29 17:28:18,15.08838425,0.0001444,53.2169,71.1758,96.085,264.0306,0.00010654,1.408e-05,0.0,0 STARLINK-5268,1 54192U 22141AM  24060.72799578  .00001408  00000-0  10654-3 0  9999,2 54192  53.2169  71.1758 0001444  96.0850 264.0306 15.08838425 74678,6917.885,95.438,540.749,538.751,0.0
54192.0,STARLINK-5268,PAYLOAD,2024-03-01 09:22:10,15.0883663,0.0001617,53.2181,68.2051,102.5794,257.5379,7.2325e-05,8.63e-06,0.0,0 STARLINK-5268,1 54192U 22141AM  24061.39040085  .00000863  00000-0  72325-4 0  9993,2 54192  53.2181  68.2051 0001617 102.5794 257.5379 15.08836630 74546,6917.891,95.438,540.874,538.637,0.0
54192.0,STARLINK-5268,PAYLOAD,2024-03-02 07:37:34,15.08846413,0.0001679,53.2181,64.0409,101.6257,258.4924,0.00012012,1.625e-05,0.0,0 STARLINK-5268,1 54192U 22141AM  24062.31775488  .00001625  00000-0  12012-3 0  9991,2 54192  53.2181  64.0409 0001679 101.6257 258.4924 15.08846413 74916,6917.861,95.437,540.887,538.564,0.0
54192.0,STARLINK-5268,PAYLOAD,2024-03-02 17:09:53,15.08843804,0.0001609,53.218,62.2521,95.3176,264.7999,3.9227e-05,3.36e-06,0.0,0 STARLINK-5268,1 54192U 22141AM  24062.71519788  .00000336  00000-0  39227-4 0  9990,2 54192  53.2180  62.2521 0001609  95.3176 264.7999 15.08843804 74746,6917.869,95.437,540.847,538.621,0.0
54192.0,STARLINK-5268,PAYLOAD,2024-03-03 04:17:35,15.08835378,0.0001742,53.2183,60.1703,84.8909,275.2282,0.00010109,1.321e-05,0.0,0 STARLINK-5268,1 54192U 22141AM  24063.17888442  .00001321  00000-0  10109-3 0  9999,2 54192  53.2183  60.1703 0001742  84.8909 275.2282 15.08835378 75046,6917.895,95.438,540.965,538.554,0.0
54192.0,STARLINK-5268,PAYLOAD,2024-03-03 09:03:44,15.08842771,0.0001462,53.2173,59.2779,90.8371,269.2789,9.8633e-05,1.282e-05,0.0,0 STARLINK-5268,1 54192U 22141AM  24063.37759866  .00001282  00000-0  98633-4 0  9993,2 54192  53.2173  59.2779 0001462  90.8371 269.2789 15.08842771 75079,6917.872,95.437,540.748,538.726,0.0
54192.0,STARLINK-5268,PAYLOAD,2024-03-04 04:08:21,15.08854424,0.000147,53.2174,55.71,88.7858,271.3303,0.00010146,1.328e-05,0.0,0 STARLINK-5268,1 54192U 22141AM  24064.17247009  .00001328  00000-0  10146-3 0  9996,2 54192  53.2174  55.7100 0001470  88.7858 271.3303 15.08854424 75191,6917.836,95.437,540.718,538.684,0.0
54192.0,STARLINK-5268,PAYLOAD,2024-03-04 05:43:44,15.08852247,0.0001558,53.2167,55.4141,93.7786,266.3385,0.00016305,2.309e-05,0.0,0 STARLINK-5268,1 54192U 22141AM  24064.23871233  .00002309  00000-0  16305-3 0  9998,2 54192  53.2167  55.4141 0001558  93.7786 266.3385 15.08852247 74978,6917.843,95.437,540.786,538.63,0.0
54192.0,STARLINK-5268,PAYLOAD,2024-03-04 16:51:27,15.0883705,0.0001744,53.2186,53.3306,94.2787,265.8405,2.547e-05,1.17e-06,0.0,0 STARLINK-5268,1 54192U 22141AM  24064.70240025  .00000117  00000-0  25470-4 0  9998,2 54192  53.2186  53.3306 0001744  94.2787 265.8405 15.08837050 75279,6917.889,95.438,540.961,538.548,0.0
54192.0,STARLINK-5268,PAYLOAD,2024-03-05 08:45:19,15.08833744,0.0001485,53.218,50.3568,104.6701,255.4456,-2.5083e-05,-6.87e-06,0.0,0 STARLINK-5268,1 54192U 22141AM  24065.36480398 -.00000687  00000-0 -25083-4 0  9994,2 54192  53.2180  50.3568 0001485 104.6701 255.4456 15.08833744 75147,6917.9,95.438,540.792,538.737,0.0
54192.0,STARLINK-5268,PAYLOAD,2024-03-06 03:49:56,15.08847464,0.0001409,53.2175,46.7885,101.9208,258.1942,0.00013511,1.863e-05,0.0,0 STARLINK-5268,1 54192U 22141AM  24066.15967845  .00001863  00000-0  13511-3 0  9996,2 54192  53.2175  46.7885 0001409 101.9208 258.1942 15.08847464 75492,6917.858,95.437,540.697,538.748,0.0
54192.0,STARLINK-5268,PAYLOAD,2024-03-06 08:36:05,15.0885085,0.0001433,53.2181,45.8966,102.8172,257.298,0.00032025,4.814e-05,0.0,0 STARLINK-5268,1 54192U 22141AM  24066.35839827  .00004814  00000-0  32025-3 0  9996,2 54192  53.2181  45.8966 0001433 102.8172 257.2980 15.08850850 75299,6917.847,95.437,540.704,538.721,0.0
54192.0,STARLINK-5268,PAYLOAD,2024-03-07 03:40:43,15.08836965,0.0001612,53.2175,42.3247,115.0706,245.0454,8.9459e-05,1.136e-05,0.0,0 STARLINK-5268,1 54192U 22141AM  24067.15328413  .00001136  00000-0  89459-4 0  9997,2 54192  53.2175  42.3247 0001612 115.0706 245.0454 15.08836965 75645,6917.89,95.438,540.87,538.64,0.0
54192.0,STARLINK-5268,PAYLOAD,2024-03-07 08:26:53,15.08842495,0.0001215,53.2174,41.4374,87.856,272.2571,0.00017562,2.508e-05,0.0,0 STARLINK-5268,1 54192U 22141AM  24067.35200395  .00002508  00000-0  17562-3 0  9996,2 54192  53.2174  41.4374 0001215  87.8560 272.2571 15.08842495 75443,6917.873,95.437,540.578,538.897,0.0
54192.0,STARLINK-5268,PAYLOAD,2024-03-08 01:56:08,15.08830959,0.0001629,53.2185,38.1699,112.1126,248.004,-9.7488e-05,-1.839e-05,0.0,0 STARLINK-5268,1 54192U 22141AM  24068.08065346 -.00001839  00000-0 -97488-4 0  9996,2 54192  53.2185  38.1699 0001629 112.1126 248.0040 15.08830959 75788,6917.908,95.438,540.9,538.646,0.0
54192.0,STARLINK-5268,PAYLOAD,2024-03-08 06:42:17,15.08833007,0.0001528,53.2192,37.2777,105.8354,254.2806,1.1725e-06,-2.69e-06,0.0,0 STARLINK-5268,1 54192U 22141AM  24068.27937349 -.00000269  00000-0  11725-5 0  9994,2 54192  53.2192  37.2777 0001528 105.8354 254.2806 15.08833007 75587,6917.902,95.438,540.824,538.71,0.0
54192.0,STARLINK-5268,PAYLOAD,2024-03-08 14:39:13,15.08838721,0.0001494,53.2188,35.7899,86.1507,273.9656,0.0001451,2.022e-05,0.0,0 STARLINK-5268,1 54192U 22141AM  24068.61057156  .00002022  00000-0  14510-3 0  9992,2 54192  53.2188  35.7899 0001494  86.1507 273.9656 15.08838721 75863,6917.884,95.438,540.783,538.716,0.0
54192.0,STARLINK-5268,PAYLOAD,2024-03-09 06:33:04,15.08864977,0.0001459,53.2176,32.8154,94.2418,265.8741,0.0011364,0.00017856,0.0,0 STARLINK-5268,1 54192U 22141AM  24069.27296909  .00017856  00000-0  11364-2 0  9990,2 54192  53.2176  32.8154 0001459  94.2418 265.8741 15.08864977 75962,6917.804,95.436,540.678,538.66,0.0
54192.0,STARLINK-5268,PAYLOAD,2024-03-10 03:13:04,15.0885829,0.0001684,53.2175,28.9487,124.3975,235.7177,0.00040216,6.121e-05,0.0,0 STARLINK-5268,1 54192U 22141AM  24070.13408220  .00006121  00000-0  40216-3 0  9990,2 54192  53.2175  28.9487 0001684 124.3975 235.7177 15.08858290 76094,6917.824,95.436,540.854,538.525,0.0
54192.0,STARLINK-5268,PAYLOAD,2024-03-10 14:20:46,15.08847009,0.0001554,53.2175,26.8678,87.5913,272.5257,0.00030895,4.633e-05,0.0,0 STARLINK-5268,1 54192U 22141AM  24070.59776456  .00004633  00000-0  30895-3 0  9997,2 54192  53.2175  26.8678 0001554  87.5913 272.5257 15.08847009 75937,6917.859,95.437,540.799,538.649,0.0
54192.0,STARLINK-5268,PAYLOAD,2024-03-11 14:11:33,15.08839432,0.0001342,53.219,22.4025,108.27,251.8438,2.6598e-05,1.35e-06,0.0,0 STARLINK-5268,1 54192U 22141AM  24071.59136441  .00000135  00000-0  26598-4 0  9991,2 54192  53.2190  22.4025 0001342 108.2700 251.8438 15.08839432 76081,6917.882,95.438,540.676,538.819,0.0
54192.0,STARLINK-5268,PAYLOAD,2024-03-11 20:33:06,15.0883434,0.000146,53.2178,21.2155,89.1699,270.9461,-5.9082e-05,-1.228e-05,0.0,0 STARLINK-5268,1 54192U 22141AM  24071.85632710 -.00001228  00000-0 -59082-4 0  9990,2 54192  53.2178  21.2155 0001460  89.1699 270.9461 15.08834340 76354,6917.898,95.438,540.773,538.753,0.0
54192.0,STARLINK-5268,PAYLOAD,2024-03-12 14:02:21,15.08841142,0.0001411,53.2175,17.9456,95.0829,265.0324,0.00015699,2.212e-05,0.0,0 STARLINK-5268,1 54192U 22141AM  24072.58496888  .00002212  00000-0  15699-3 0  9992,2 54192  53.2175  17.9456 0001411  95.0829 265.0324 15.08841142 76232,6917.877,95.437,540.718,538.766,0.0
54192.0,STARLINK-5268,PAYLOAD,2024-03-13 01:10:03,15.08839952,0.0001513,53.2186,15.8636,96.4807,263.6358,0.00017638,2.52e-05,0.0,0 STARLINK-5268,1 54192U 22141AM  24073.04865141  .00002520  00000-0  17638-3 0  9993,2 54192  53.2186  15.8636 0001513  96.4807 263.6358 15.08839952 76535,6917.881,95.438,540.792,538.699,0.0
54192.0,STARLINK-5268,PAYLOAD,2024-03-13 20:14:40,15.08843996,0.000155,53.2187,12.2952,100.8955,259.2212,0.00020552,2.985e-05,0.0,0 STARLINK-5268,1 54192U 22141AM  24073.84353006  .00002985  00000-0  20552-3 0  9997,2 54192  53.2187  12.2952 0001550 100.8955 259.2212 15.08843996 76424,6917.868,95.437,540.805,538.661,0.0
54192.0,STARLINK-5268,PAYLOAD,2024-03-14 02:36:13,15.0884644,0.0001216,53.2182,11.1084,83.5985,276.5146,0.00023071,3.386e-05,0.0,0 STARLINK-5268,1 54192U 22141AM  24074.10848915  .00003386  00000-0  23071-3 0  9990,2 54192  53.2182  11.1084 0001216  83.5985 276.5146 15.08846440 76696,6917.861,95.437,540.567,538.884,0.0
54192.0,STARLINK-5268,PAYLOAD,2024-03-14 05:46:59,15.08845315,0.0001314,53.2187,10.5169,81.3926,278.7215,0.00017528,2.503e-05,0.0,0 STARLINK-5268,1 54192U 22141AM  24074.24096984  .00002503  00000-0  17528-3 0  9996,2 54192  53.2187  10.5169 0001314  81.3926 278.7215 15.08845315 76486,6917.864,95.437,540.638,538.82,0.0
